{
"type": "FeatureCollection",
"name": "ne_50m_rivers_lake_centerlines",
"features": [
{"type":"Feature","properties":{"name":"Borcea","name_alt":null,"scalerank":2,"min_zoom":2.1},"geometry":{"type":"LineString","coordinates":[[27.2665841,44.1377971],[27.7687757,44.3626671],[27.9299545,44.4861738],[27.9346053,44.5922655],[27.9218413,44.6700386],[27.8766761,44.7441167]]}},
{"type":"Feature","properties":{"name":"Bratul Chillia","name_alt":null,"scalerank":2,"min_zoom":2.1},"geometry":{"type":"LineString","coordinates":[[29.7059184,45.2598992],[29.6519682,45.3139011],[29.567684,45.3708227],[29.403663,45.4196569],[29.2235706,45.4029137],[29.0274069,45.3205415],[28.8942884,45.289949],[28.8243185,45.3110847],[28.7817371,45.3098445],[28.7666476,45.2862283],[28.7698515,45.2669014],[28.7913489,45.2519152],[28.7883,45.2409598],[28.7607048,45.2341385],[28.7809619,45.2180671],[28.8830746,45.1800333]]}},
{"type":"Feature","properties":{"name":"Bratul Sfântu Gheorghe","name_alt":null,"scalerank":2,"min_zoom":2.1},"geometry":{"type":"LineString","coordinates":[[28.8830746,45.1800333],[29.0753626,45.0999348],[29.1467794,45.0841218],[29.1746847,45.0891861],[29.204657,45.0801427],[29.2764873,45.0068655],[29.3483175,44.970227],[29.4201477,44.9703045],[29.4947685,44.9497631],[29.6054594,44.9154758]]}},
{"type":"Feature","properties":{"name":"Bratul Sulina","name_alt":null,"scalerank":2,"min_zoom":2.1},"geometry":{"type":"LineString","coordinates":[[28.8827128,45.1798266],[29.6786333,45.1516371]]}},
{"type":"Feature","properties":{"name":"Danube","name_alt":null,"scalerank":2,"min_zoom":2.1},"geometry":{"type":"LineString","coordinates":[[17.206423,48.0610977],[17.4806181,47.8876199],[17.6352857,47.8098986],[17.7618929,47.7701594],[18.1455904,47.7634156],[18.7536153,47.7883754],[18.7945431,47.8094335],[19.0001636,47.8192003],[19.0713221,47.8065138],[19.1034648,47.7792286],[19.1233085,47.7312471],[19.1239287,47.7090779],[19.0733891,47.5520332],[19.0600049,47.4810298],[19.0296709,47.4127394],[18.9588225,47.3646803],[18.9071977,47.2599838],[18.8836333,47.1511533],[18.9281783,47.0832504],[18.9353097,47.0330468],[18.9399606,46.9998188],[18.9364982,46.8847613],[18.9449215,46.8036034],[18.982852,46.7401964],[18.9658505,46.6851094],[18.8940202,46.6382905],[18.873608,46.5858648],[18.9046139,46.5278321],[18.9188249,46.422929],[18.9162411,46.2711553],[18.8591386,46.1510851],[18.7475175,46.0626667],[18.7269503,46.0144009],[18.7592998,45.93469],[18.8390882,45.8357555],[18.8944853,45.7671034],[18.9472986,45.6558182],[18.9178431,45.6008345],[18.9537065,45.5579947],[19.0550957,45.5272472],[19.0642941,45.5149999],[19.0332882,45.5021842],[19.0076567,45.4658039],[19.0046595,45.3995031],[19.0930778,45.3369229],[19.2728085,45.2779601],[19.4747083,45.2433369],[19.6987773,45.2330533],[19.8283301,45.2414765],[19.8633667,45.26871],[19.9070333,45.2591499],[19.9594332,45.2128995],[20.0448027,45.1861828],[20.1631417,45.1790514],[20.2532654,45.1498801],[20.2823076,45.125773],[20.3149671,45.0986946],[20.3391,45.0384398],[20.3255607,44.9690901],[20.3528976,44.9109024],[20.4210071,44.8638252],[20.5004338,44.8425862],[20.5910743,44.8471854],[20.6356193,44.828401],[20.634069,44.7862847],[20.6658501,44.7409903],[20.7310657,44.6925953],[20.91276,44.7079691],[21.3600712,44.8266698],[21.5231621,44.7900829],[21.5970594,44.755408],[21.6361267,44.7104495],[21.7402031,44.6806839],[21.9092884,44.6661112],[22.0269039,44.6198607],[22.0930498,44.5419327],[22.2009501,44.5606912],[22.3507084,44.6761364],[22.4976762,44.7062637],[22.6420602,44.65097],[22.7209184,44.6055205],[22.7343543,44.5699155],[22.7007646,44.5555236],[22.6201494,44.5623449],[22.5540035,44.5403307],[22.5023271,44.4895845],[22.4945756,44.4354276],[22.5306458,44.3779634],[22.5818055,44.3383275],[22.6479513,44.3164684],[22.683298,44.2864702],[22.6878455,44.2483072],[22.7751787,44.1952355],[22.9454008,44.127281],[23.0284965,44.0779817],[23.0244658,44.0472342],[22.9853984,44.0170035],[22.9112944,43.9871862],[22.8682996,43.9478863],[22.856414,43.8990262],[22.8676795,43.864558],[22.9190459,43.8344565],[23.2246086,43.8738856],[23.5345638,43.8535768],[23.9507658,43.7866558],[24.2267696,43.7634789],[24.4305815,43.7943814],[25.1596326,43.686326],[25.4970797,43.6707972],[25.6861121,43.7117508],[25.8188172,43.7668379],[25.9334355,43.8705525],[26.2157955,44.0072883],[26.4892155,44.0839761],[26.8477466,44.1461946],[27.0869051,44.1674077],[27.221729,44.1433007],[27.2665841,44.1377971],[27.338311,44.1333788],[27.4124667,44.137668],[27.5941093,44.1792675],[27.860243,44.2626216],[28.0221452,44.3426167],[28.0799195,44.4193045],[28.0833818,44.4762003],[28.0324288,44.5133039],[28.0128951,44.5581074],[28.0246774,44.6106623],[27.9921212,44.6637082],[27.9071652,44.7187694],[27.8766761,44.7441167],[27.8501144,44.7683788],[27.8301673,44.7956123],[27.830684,44.8300805],[27.8628268,44.8647554],[27.8945561,44.9676173],[27.9259754,45.138718],[27.9648361,45.26871],[28.0112415,45.3575935],[28.0789376,45.4141275],[28.2124695,45.450456],[28.3176827,45.347129],[28.4512663,45.292197],[28.7607048,45.2341385]]}},
{"type":"Feature","properties":{"name":"Dniester","name_alt":null,"scalerank":6,"min_zoom":5.0},"geometry":{"type":"LineString","coordinates":[[22.8465955,49.2670706],[23.0823434,49.4606505],[23.3883712,49.5540299],[23.6073759,49.5647527],[23.8412635,49.52398],[24.018617,49.4810111],[24.1392298,49.4359234],[24.2266146,49.3723614],[24.2806682,49.2903509],[24.3604566,49.2452115],[24.4659799,49.2370466],[24.5942924,49.1819079],[24.7453943,49.0797952],[24.851176,49.0278604],[24.9116374,49.0260001],[24.98693,48.9981981],[25.1221155,48.9176346],[25.1545166,48.8784639],[25.1853675,48.8818745],[25.2105339,48.88451],[25.2302743,48.8642528],[25.2507382,48.8419028],[25.3018978,48.8419028],[25.3390015,48.8324718],[25.3976542,48.8452876],[25.5205408,48.8089074],[25.668232,48.6894056],[25.7312256,48.6589165],[25.7805766,48.6598725],[25.826982,48.6491755],[25.8940581,48.6075243],[25.9579301,48.6019433],[26.0054208,48.613803],[26.0366333,48.6172395],[26.0719283,48.572281],[26.092909,48.5626692],[26.1303744,48.5721518],[26.1687183,48.5472438],[26.2531059,48.5294412],[26.3979033,48.5351256],[26.4984656,48.5166772],[26.5547929,48.4740958],[26.5910698,48.4662926],[26.6072962,48.4932677],[26.6388188,48.5042231],[26.6683777,48.5165738],[26.6943193,48.5390014],[26.7204676,48.5499568],[26.7587081,48.5618424],[26.7840296,48.5647879],[26.80377,48.5790764],[26.8349825,48.5825646],[26.8835584,48.5582508],[26.9966781,48.5603437],[27.2719068,48.600548],[27.4329822,48.5836498],[27.4799044,48.5095975],[27.5737488,48.4648974],[27.7144121,48.4494978],[27.8200387,48.4162698],[27.8906287,48.3652135],[27.9633891,48.3335617],[28.0384233,48.3212886],[28.0801262,48.2958121],[28.0884978,48.2570548],[28.1588294,48.2379862],[28.2910177,48.2385546],[28.3471383,48.2130523],[28.3269845,48.1614275],[28.3405237,48.1444518],[28.3875493,48.1621251],[28.423051,48.1468806],[28.4420162,48.1086917],[28.4630485,48.0905016],[28.4956564,48.0959276],[28.5391679,48.1040925],[28.5744629,48.0687458],[28.5717758,48.0279731],[28.6043836,48.0089562],[28.6533212,48.0171211],[28.7655624,47.9865803],[28.9339242,47.8979036],[29.0101986,47.7957392],[28.9943856,47.6800874],[29.017485,47.5826773],[29.0794967,47.5035607],[29.1034746,47.4495588],[29.0894186,47.4207751],[29.1029578,47.3917846],[29.1199077,47.3685043],[29.1164453,47.3405474],[29.1037329,47.3101875],[29.1538591,47.2347916],[29.1445573,47.1809706],[29.1319483,47.1532462],[29.1369609,47.1355728],[29.1722559,47.1355728],[29.2151473,47.1431434],[29.2649634,47.1460373],[29.3135909,47.1157807],[29.3591695,47.0664298],[29.3602548,47.0294036],[29.3167432,47.0046247],[29.3002067,46.9838508],[29.3106454,46.9671077],[29.4235584,46.9547053],[29.4724443,46.9118139],[29.4985926,46.8287182],[29.5372982,46.8005803],[29.5886646,46.8274004],[29.6351734,46.8125951],[29.6768246,46.7561128],[29.6897954,46.7150042],[29.6739824,46.6891918],[29.6934127,46.6645421],[29.7480864,46.640926],[29.7634343,46.6204621],[29.7698422,46.6010318],[29.8051372,46.580878],[29.8982581,46.5534378],[30.1310087,46.423084],[30.2196855,46.426288],[30.254102,46.4005272],[30.2687781,46.3200412]]}},
{"type":"Feature","properties":{"name":"Donau","name_alt":"Danube","scalerank":2,"min_zoom":2.1},"geometry":{"type":"MultiLineString","coordinates":[[[9.464611,48.1589163],[9.508805,48.2023294],[9.5886967,48.2439548],[9.6607337,48.2409834],[9.7840336,48.2890941],[9.9588033,48.3882612],[10.1271652,48.4529084],[10.2891191,48.4830875],[10.3850306,48.5162121],[10.4146928,48.5523339],[10.5235751,48.6066975],[10.7115739,48.6794062],[11.0250948,48.7353201],[11.6835559,48.7941279],[11.7659282,48.8709191],[11.8503675,48.9060074],[11.9643657,48.924921],[12.024207,48.957658],[12.032992,49.0274987],[12.2424366,49.0180936],[12.3608273,48.9922037],[12.5065548,48.9238358]],[[17.206423,48.0610977],[17.1654952,48.117425],[17.1108216,48.1464672],[17.028656,48.1670861],[16.8780709,48.1717886],[16.6590662,48.1606265],[16.4864669,48.2125355],[16.3604798,48.3274897],[16.2094812,48.3795796],[16.033678,48.3688309],[15.8613888,48.3793729],[15.6927169,48.4112831],[15.5730343,48.4237112],[15.5023409,48.4166833],[15.4311825,48.3708979],[15.359559,48.2863036],[15.2647327,48.2287877],[15.1467037,48.1983503],[15.0357544,48.1978852],[14.9318848,48.2273925],[14.8287903,48.2272116],[14.726471,48.1973168],[14.5834306,48.2187367],[14.3996692,48.2915488],[14.2430896,48.3282649],[14.1137952,48.328885],[14.0367973,48.3523461],[14.0121993,48.3986223],[13.8715878,48.4617709],[13.48665,48.5818411],[13.3162728,48.602305],[13.1999492,48.6364114],[13.0808867,48.6909818],[13.0047673,48.7476191],[12.971591,48.8063236],[12.9088042,48.8357016],[12.8163033,48.8357016],[12.7042172,48.859602],[12.5065548,48.9312772]]]}},
{"type":"Feature","properties":{"name":"Mur","name_alt":"Drava","scalerank":6,"min_zoom":5.0},"geometry":{"type":"LineString","coordinates":[[13.8218234,47.0904593],[14.3673198,47.1473809],[14.5070012,47.2091084],[14.6196558,47.2244046],[14.7518441,47.2137593],[14.860623,47.245256],[14.9460958,47.3189208],[15.0620061,47.3710106],[15.1451534,47.4001562],[15.2084571,47.4015256],[15.3030249,47.3936708],[15.3457097,47.3474204],[15.3524793,47.3162078],[15.3234371,47.3000589],[15.3155823,47.2525683],[15.3289148,47.17371],[15.3613676,47.1211034],[15.4129407,47.0948001],[15.4759343,46.996925],[15.5596501,46.831302],[15.5817159,46.7673524],[15.6301884,46.7364757],[15.7012952,46.7228332],[16.0420496,46.6626818],[16.2114966,46.570491],[16.3212057,46.5346276],[16.4276591,46.5243957],[16.569976,46.4849924],[16.748053,46.4164178],[16.8714563,46.3392907],[16.9399793,46.2536628],[17.0326868,46.1873103],[17.1495789,46.1403364],[17.2421831,46.0766194],[17.3106027,45.9961592],[17.4063074,45.9510973],[17.529194,45.9413305],[17.6070187,45.9137869],[17.6396782,45.8683633],[17.7063924,45.8272547],[17.8071615,45.7904095],[17.9638444,45.7702815],[18.2827397,45.7651655],[18.550837,45.6267244],[18.7120675,45.5736527],[18.9537065,45.5579947]]}},
{"type":"Feature","properties":{"name":"Elbe","name_alt":null,"scalerank":5,"min_zoom":4.7},"geometry":{"type":"LineString","coordinates":[[15.5827495,50.6927976],[15.6149956,50.6139135],[15.6525643,50.575983],[15.7062045,50.5526769],[15.7340581,50.5221878],[15.7360218,50.4844123],[15.7822722,50.4401256],[15.8641793,50.3940819],[15.8838164,50.3722745],[15.8890357,50.3275227],[15.8448523,50.2720222],[15.8193758,50.1966263],[15.8172054,50.1069677],[15.6774207,50.0519323],[15.3999182,50.0314167],[15.2355872,50.0346982],[15.158796,50.0752125],[15.0881027,50.1523654],[14.9693502,50.1790305],[14.7788709,50.1809425],[14.6309729,50.2221028],[14.4729464,50.3427156],[14.3881971,50.4381103],[14.3324382,50.4604345],[14.2773511,50.4415726],[14.2405575,50.4541558],[14.2220573,50.4982099],[14.1780807,50.5200691],[14.1087309,50.5196557],[14.0624805,50.5353653],[14.0394328,50.5670946],[14.0395878,50.589393],[14.0629456,50.6022604],[14.0673898,50.6185127],[14.0695602,50.6414312],[14.0839779,50.6607323],[14.1603557,50.6862605],[14.2028854,50.7496675],[14.211567,50.8509791],[14.1361711,50.9178743],[13.9766976,50.9503271],[13.8738098,50.9913581],[13.8276111,51.0409934],[13.7466965,51.077385]]}},
{"type":"Feature","properties":{"name":"Ferenc Csatorna","name_alt":null,"scalerank":6,"min_zoom":5.0},"geometry":{"type":"LineString","coordinates":[[18.9198584,46.2668403],[18.908593,45.9499346],[18.905389,45.9317187],[18.8935551,45.8655211],[18.8390882,45.8357555]]}},
{"type":"Feature","properties":{"name":"Oder","name_alt":null,"scalerank":4,"min_zoom":4.0},"geometry":{"type":"LineString","coordinates":[[17.6179741,49.7393932],[17.8469523,49.6540237],[17.9464295,49.6370739],[18.0157792,49.6717488],[18.141663,49.7298848],[18.2248621,49.7947387],[18.3073377,49.8856375],[18.3165878,49.9724022],[18.2526123,50.0550329],[18.2310116,50.1374568],[18.2517855,50.219674],[18.1853813,50.3210115],[18.0319023,50.4413659],[17.9582117,50.5321614],[17.9643095,50.5932946],[17.938368,50.656469],[17.880387,50.7216588],[17.7622547,50.7804666],[17.4502324,50.8819591],[17.3605221,50.9275894],[17.300009,50.9745116],[17.2686931,51.0227257],[17.1936072,51.0678393],[17.1666417,51.077385]]}},
{"type":"Feature","properties":{"name":"Po","name_alt":null,"scalerank":6,"min_zoom":5.0},"geometry":{"type":"LineString","coordinates":[[9.464611,45.099202],[9.5049809,45.0933719],[9.549526,45.1156703],[9.6069902,45.1290803],[9.651897,45.1143008],[9.6987159,45.0861889],[9.7326673,45.0827782],[9.7538546,45.1040172],[9.7816565,45.1030354],[9.8162797,45.0797293],[9.8458387,45.0845869],[9.8704366,45.1175048],[9.9086772,45.132646],[9.960457,45.1299071],[10.0076892,45.1057742],[10.050374,45.0601956],[10.1535201,45.0258308],[10.3171277,45.0027314],[10.429524,44.9723715],[10.4906055,44.9348028],[10.5566997,44.9282915],[10.6277031,44.9528378],[10.6659953,44.9861433],[10.671473,45.0282079],[10.7397376,45.0569142],[10.8706857,45.0722362],[11.0203406,45.0747684],[11.1884957,45.0645364],[11.3124158,45.0289572],[11.3918942,44.9680049],[11.479279,44.9268704],[11.574467,44.9055797],[11.6839177,44.917517],[11.8694877,44.9852131],[12.0849785,45.019888],[12.1988733,45.0129892],[12.2828992,44.9760406],[12.377157,44.9606927],[12.5234013,44.9679532]]}},
{"type":"Feature","properties":{"name":"Rhein","name_alt":null,"scalerank":4,"min_zoom":4.0},"geometry":{"type":"LineString","coordinates":[[9.464611,46.8719149],[9.5167631,46.9067496],[9.5338164,46.9630769],[9.4958859,47.0276466],[9.4794528,47.0975131],[9.4843103,47.1726765],[9.5275118,47.2707584],[9.6090572,47.3917846],[9.6259038,47.4670255],[9.5543836,47.5111571]]}},
{"type":"Feature","properties":{"name":"Soroksari Duna","name_alt":null,"scalerank":6,"min_zoom":5.0},"geometry":{"type":"LineString","coordinates":[[19.0600049,47.4810298],[19.0912175,47.4388618],[19.0979354,47.4177778],[19.0937496,47.3941875],[19.0524085,47.353699],[18.9743254,47.2754868],[18.9487456,47.1994966],[18.9726201,47.1449263],[18.9760307,47.1005104],[18.9353097,47.0330468]]}},
{"type":"Feature","properties":{"name":"Tisa","name_alt":null,"scalerank":6,"min_zoom":5.0},"geometry":{"type":"LineString","coordinates":[[20.1788514,46.2608459],[20.0869707,46.1658646],[20.0664551,46.1383985],[20.0644397,46.116927],[20.0788058,46.076361],[20.0735348,46.0487141],[20.0611324,46.0289737],[20.0799943,46.0007584],[20.1042306,45.9691841],[20.1237643,45.9223135],[20.1216455,45.8902742],[20.097771,45.8730659],[20.1049024,45.8339985],[20.1403524,45.778343],[20.1358566,45.7420661],[20.1095533,45.7236693],[20.0847486,45.6888911],[20.0701758,45.631892],[20.104644,45.5633174],[20.1880498,45.4831155],[20.222828,45.4310774],[20.2088754,45.4071512],[20.2310445,45.3487051],[20.2894389,45.2557392],[20.3083525,45.1924356],[20.2823076,45.125773]]}},
{"type":"Feature","properties":{"name":"Tisza","name_alt":null,"scalerank":6,"min_zoom":5.0},"geometry":{"type":"MultiLineString","coordinates":[[[21.3464287,48.0263195],[21.1816325,48.0058039],[21.1034978,47.9442056],[21.0570923,47.8346516],[20.8712122,47.6899576],[20.545754,47.5101236],[20.4000265,47.3822244],[20.4340296,47.3062601],[20.4262781,47.2695698],[20.3767721,47.2721536],[20.3059754,47.2415095],[20.2137846,47.1777408],[20.1747172,47.1191397],[20.1887732,47.0657063],[20.2179704,47.0375426],[20.1920805,47.0098957],[20.1550285,46.9796133],[20.1435047,46.9385306],[20.1246945,46.9117105],[20.0660934,46.8735475],[20.079736,46.8109415],[20.1656222,46.7239184],[20.1915638,46.6528633],[20.1574573,46.5977245],[20.1627283,46.5001077],[20.2074801,46.3600129],[20.2170919,46.2826533],[20.1788514,46.2608459]],[[24.2556051,48.3217536],[24.337874,48.2939001],[24.3324996,48.2341621],[24.2343144,48.0827501],[24.1697189,47.9549543],[24.0018221,47.9357824],[23.7090235,47.9826012],[23.4773063,48.0492121],[23.3066708,48.1356668],[23.1461121,48.1545287],[22.995527,48.1057462],[22.8851461,48.0913801],[22.8149695,48.1114822],[22.7015397,48.1070122],[22.5449602,48.0780218],[22.4195415,48.0953592],[22.3251803,48.1589729],[22.2763461,48.2440323],[22.2729354,48.3504857],[22.2537635,48.4073815],[22.2189335,48.4147195],[22.133254,48.3737401],[21.9968282,48.2844949],[21.8689807,48.2217598],[21.7498149,48.1855862],[21.6366435,48.1699283],[21.5296733,48.17476],[21.4651811,48.145537],[21.4433737,48.0822334],[21.4090605,48.0445354],[21.3389873,48.0263195]]]}},
{"type":"Feature","properties":{"name":"Vistula","name_alt":null,"scalerank":5,"min_zoom":4.7},"geometry":{"type":"MultiLineString","coordinates":[[[18.8791891,49.6438435],[18.7881869,49.8174246],[18.7709786,49.8877046],[18.8102527,49.925015]],[[18.93686,49.9318879],[19.0681698,49.9523001],[19.1412919,49.9865874],[19.199893,50.0415453],[19.3482561,50.0457311],[19.5862777,49.9992223],[19.8516362,50.0060436],[20.2906792,50.0963223],[20.5219829,50.1373017],[20.6452828,50.1876604],[20.7376803,50.2610668],[20.8832011,50.3073172],[21.0819487,50.3263858],[21.2892745,50.3855553],[21.505282,50.4848774],[21.6700782,50.5859049],[21.783663,50.6885859],[21.8236088,50.8457081],[21.7900192,51.0572198],[21.7890655,51.077385]]]}},
{"type":"Feature","properties":{"name":"Loire","name_alt":null,"scalerank":5,"min_zoom":4.7},"geometry":null}
]
}
