{
"type": "FeatureCollection",
"name": "ne_110m_rivers_lake_centerlines",
"features": [
{"type":"Feature","properties":{"name":"Donau","name_alt":"Danube","scalerank":2,"min_zoom":2.1},"geometry":{"type":"LineString","coordinates":[[9.464611,48.1581024],[10.7198938,48.6487104],[11.6835559,48.7941279],[12.032992,49.0274987],[12.1557623,49.0007561],[12.3837845,48.9518185],[12.5065548,48.9275565],[12.6596979,48.8751049],[12.9966024,48.7560941],[13.3335069,48.6363856],[13.48665,48.5818411],[14.7016663,48.2340587],[14.9956018,48.2130523],[15.6344259,48.3746186],[15.936733,48.353483],[16.8780709,48.1717886],[17.4884729,47.8674661],[17.8571326,47.7584289],[18.6965129,47.8809537],[18.9098849,47.8061004],[19.0256918,47.6682018],[18.9332426,47.1759321],[18.9523112,46.7777652],[18.8822897,46.2796561],[18.764209,46.034348],[18.7805129,45.9651145],[18.8109762,45.9014363],[18.8872248,45.8062483],[19.0090907,45.6216601],[19.072769,45.5215111],[19.1552058,45.4480014],[19.3086332,45.3134618],[19.3922327,45.2468251],[19.5129747,45.2326528],[19.7768991,45.1914279],[20.0404877,45.1482781],[20.1602478,45.1283052],[20.5419816,44.8017618],[20.7678077,44.7441942],[21.3600712,44.8266698],[21.5620227,44.7689473],[22.1450879,44.4784223],[22.4590223,44.7025172],[22.7057255,44.5780028],[22.4740084,44.4092276],[22.6571497,44.234923],[22.9448324,43.8237853],[23.3323023,43.8970108],[24.1006792,43.7410513],[25.5692717,43.6884447],[26.0651587,43.9434938],[27.2423995,44.175986],[27.2850584,44.1530417],[27.3015174,44.1333788],[27.3844193,44.1665551],[27.6008531,44.2352331],[27.8238369,44.3030842],[27.9263888,44.33378],[28.0527893,44.4094085],[28.0441077,44.4958373],[27.8766761,44.7441167],[27.9881938,45.2184805],[28.0467303,45.2793166],[28.157447,45.3959116],[28.2230115,45.4693696],[28.3461177,45.4349144],[28.5637013,45.3510952],[28.6797795,45.3040309],[29.149725,45.4649254],[29.603289,45.293308]]}}
]
}
