{
"type": "FeatureCollection",
"name": "world_1880",
"crs": { "type": "name", "properties": { "name": "urn:ogc:def:crs:OGC:1.3:CRS84" } },
"features": [
{"type":"Feature","properties":{},"geometry":{"type":"Polygon","coordinates":[[[26.989401025007322,48.680757638453613],[27.107731508510145,48.643568057924156],[27.107731508510145,48.832581777750207],[27.485758948162246,48.670570017899301],[27.485758948162246,48.75157589782475],[27.647770708013145,48.75157589782475],[27.706118616667968,48.439696870759768],[27.72314170321582,48.434020601228518],[27.819605860320312,48.39430197329883],[27.882025751677734,48.337558351472659],[27.944443735686523,48.31486090274219],[28.012536081877929,48.30918463321094],[28.057930979338867,48.280810914949221],[28.080628428069335,48.252441011384768],[28.114674601165039,48.218394838289065],[28.160069498625976,48.224067293123049],[28.216813120452148,48.212718568757815],[28.296254191008789,48.229743562654299],[28.347323450652343,48.229743562654299],[28.358672175017578,48.20136984439258],[28.318951639739257,48.155974946931643],[28.301928553191406,48.133277498201174],[28.347323450652343,48.150302492097659],[28.387043985930664,48.138953767732424],[28.387043985930664,48.104907594636721],[28.41541579684375,48.082210145906252],[28.426790289144513,48.097376135640609],[28.908222199653149,47.818388161083575],[29.115597252262305,47.282669275176595],[29.426659831176035,46.816075406806007],[29.806847427626149,46.505012827892273],[29.964310147469543,46.36854513736133],[30.066066243387588,46.280356520899026],[30.432847403456218,46.175749569611057],[30.068821940032226,45.861400209382815],[29.729748758879882,45.769992433503909],[29.629511866179687,45.750358186677737],[29.500430140105468,45.523368440583987],[29.536093744841796,45.452197633699221],[29.615916285125,45.410205446199221],[29.68321135958789,45.374789796785159],[29.7107649179375,45.258334718660159],[29.578961405364257,45.057502351716799],[29.457522425261718,44.915149293855471],[29.261582407561523,44.895423494294924],[29.089749369231445,44.875732027009768],[28.918236765471679,44.765750490144534],[28.686247858611328,44.48805197329883],[28.573113474456054,44.197822175935549],[28.529885325041992,43.843471132234377],[28.510106119719726,43.743075929597659],[28.480538401213867,43.592284761384768],[28.445693049041015,43.476363740876955],[28.32809546908496,43.437526308015627],[28.187058481780273,43.450118623689455],[28.03463843783496,43.391902528718752],[27.854167511508024,43.476709050102016],[27.719357383083864,43.476709050102016],[27.584547254659707,43.584557152841349],[27.368851049181057,43.61151917852618],[27.126192818017568,43.854177409689662],[26.721762432745095,43.988987538113825],[26.572860766063499,44.213209927211935],[26.406205210295898,44.154418550447268],[25.549092325774414,43.807303987458987],[25.378106150237304,43.780623994783205],[24.75501540621875,43.93818625064258],[24.62034514865039,43.943900667146487],[24.309523615447265,43.826312623933596],[24.156373056975585,43.812606416658205],[23.638304743376953,43.990073762849612],[23.410887751189453,43.990924440339846],[23.06405738314746,43.906024537996096],[22.944375071135742,43.895408235505862],[22.923110041228515,43.980315767244143],[23.02825644930957,44.12361105533008],[22.870383295623046,44.171390138582034],[22.69400123080371,44.263091646150393],[22.505961451140625,44.34659918399219],[22.440566095916015,44.495299898103518],[22.584815058318359,44.585597597078127],[22.742365870085937,44.580283723787112],[22.691102060881835,44.638717256501955],[22.409525904265625,44.750297151521487],[22.295901331511718,44.691852174714846],[22.199408564177734,44.56434591861133],[22.132897410002929,44.511233888582034],[21.946509394255859,44.618777833894534],[21.858902964202148,44.681220613435549],[21.591851267424804,44.707782350496096],[21.583313974944335,44.79280050845508],[21.477652582732421,44.79280050845508],[21.367487940398437,44.808749757722659],[20.976613452823639,44.809580044760729],[20.410609905728538,44.69637933534171],[20.184208486890498,44.922780754179747],[19.957807068052457,44.734112905148045],[19.655938509601736,44.69637933534171],[19.580471369989056,44.885047184373413],[19.353247675505859,44.891295991853518],[19.298001322356445,44.901340089753909],[19.217644724456054,44.906364046052737],[19.147332224456054,44.906364046052737],[19.051909479705078,44.856139741853518],[19.016753229705078,44.851119600251955],[18.931374582854492,44.841075502351565],[18.84097388705371,44.851119600251955],[18.775683436003906,44.906364046052737],[18.800795588103515,44.951564393953127],[18.780705484954101,44.991744600251955],[18.725459131804687,44.996764741853518],[18.715415033904296,45.046989046052737],[18.650126490203125,45.072101198152346],[18.58483603915332,45.092189393953127],[18.539635691252929,45.052009187654299],[18.494435343352539,45.057033143953127],[18.424122843352539,45.092189393953127],[18.393988642302734,45.102233491853518],[18.328700098601562,45.102233491853518],[18.258387598601562,45.122321687654299],[18.208163294402343,45.092189393953127],[18.147896799651367,45.072101198152346],[18.087628397551757,45.092189393953127],[18.037406000701171,45.122321687654299],[17.987183603850585,45.122321687654299],[17.931937250701171,45.082145296052737],[17.856602701750976,45.046989046052737],[17.786292109099609,45.077121339753909],[17.665757212249023,45.117301546052737],[17.585400614348632,45.112277589753909],[17.515088114348632,45.107257448152346],[17.429709467498046,45.13236578555469],[17.354374918547851,45.137389741853518],[17.284062418547851,45.177569948152346],[17.243884119597656,45.142413698152346],[17.19366172274707,45.13236578555469],[17.16854957064746,45.157477937654299],[17.06308082064746,45.192634187654299],[16.99276832064746,45.217746339753909],[16.932501825896484,45.23783453555469],[16.892323526946289,45.242858491853518],[16.832055124846679,45.187614046052737],[16.781832727996093,45.192634187654299],[16.681387934294921,45.20267828555469],[16.606053385344726,45.217746339753909],[16.510628733245117,45.207702241853518],[16.465428385344726,45.157477937654299],[16.400137934294921,45.092189393953127],[16.34489348849414,45.001788698152346],[16.254492792693359,45.011832796052737],[16.138979944792968,45.072101198152346],[16.068667444792968,45.157477937654299],[16.023467096892578,45.207702241853518],[15.882842096892578,45.222770296052737],[15.827597651091796,45.20267828555469],[15.787419352141601,45.122321687654299],[15.767330202666503,45.046989046052737],[15.787419352141601,44.986720643953127],[15.787419352141601,44.951564393953127],[15.802485498992187,44.856139741853518],[15.747241053191406,44.826007448152346],[15.757285151091796,44.785831056550784],[15.817553553191406,44.750674806550784],[15.857731852141601,44.710494600251955],[15.912976297942382,44.695426546052737],[15.958176645842773,44.680362306550784],[16.038533243743164,44.600005708650393],[16.103823694792968,44.494536958650393],[16.144001993743164,44.434268556550784],[16.154046091643554,44.379024110750002],[16.224358591643554,44.328799806550784],[16.189202341643554,44.303687654451174],[16.184180292693359,44.258487306550784],[16.19422439059375,44.193198762849612],[16.269558939543945,44.19822271914844],[16.30973723849414,44.147998414949221],[16.33484939059375,44.09275396914844],[16.385071787444335,44.042529664949221],[16.460406336394531,44.02244146914844],[16.535740885344726,44.007373414949221],[16.701476130095703,43.84666021914844],[16.711520227996093,43.771327577546877],[16.746676477996093,43.75123556704883],[16.842101130095703,43.71607931704883],[17.012858423796875,43.555366121248049],[17.113305124846679,43.500121675447268],[17.213749918547851,43.469989381746096],[17.258950266448242,43.444877229646487],[17.258950266448242,43.394652925447268],[17.294106516448242,43.269095979646487],[17.384507212249023,43.233939729646487],[17.469887766448242,43.158607088044924],[17.535176310149414,43.108382783845705],[17.609409018908103,43.071267070187837],[17.533678482436319,42.929272314303233],[17.075087580291015,43.222747407869143],[16.992262873259765,43.322715364412112],[16.639813456145507,43.389735780671877],[16.548510584441406,43.461314760164065],[16.366747889128906,43.513022981599612],[16.059407267180664,43.433478914216799],[15.912835154143554,43.652247987703127],[15.412318262664062,43.934756837800784],[15.149468454924804,44.239928804353518],[15.274405512419921,44.23661383242969],[15.548222574797851,44.229346834138674],[15.285944017974121,44.328918062166018],[14.98910621127246,44.540027223542971],[14.906961474028808,44.723323427156252],[14.945532831755859,44.92658957095508],[14.815391573516113,45.077869020417971],[14.624427699660593,45.274595447337148],[14.524585756865722,45.266284547761721],[14.354488405791503,45.32289084048633],[14.238621744719726,45.062354646638674],[14.174608263579589,45.010387025789065],[14.188512835112792,44.94254644961719],[14.060400042144042,44.894702516511721],[13.991256746855957,44.783099733308596],[13.895102533904296,44.759181581453127],[13.672059092131835,45.050357423738284],[13.629036268576202,45.074264167752467],[13.526890787688476,45.454310975984377],[13.50614843757813,45.49899121245987],[13.570664548852118,45.484992573854676],[13.595242115051732,45.52267328979589],[13.799984011260253,45.566371522859377],[13.673180613127929,45.714507661775393],[13.564614328948242,45.726523958162112],[13.564330544859134,45.726326933750777],[13.516901122790324,45.791087856198644],[13.537847584970601,45.800417071660519],[13.537683013294171,45.800467340235571],[13.535058054534179,45.801269136384768],[13.592006716338378,45.963805757478518],[13.440735849944335,46.00388678164844],[13.606337580291015,46.132136903718752],[13.521996531096679,46.215568147615237],[13.388707193938476,46.216331087068362],[13.344471964446289,46.284507356599612],[13.6211014123833,46.420882783845705],[13.568899187651855,46.510425172761721],[13.354013475981933,46.560660921052737],[12.951894793120605,46.597457490876955],[12.361854586211425,46.708541475251955],[12.217808756438476,46.88431891055469],[12.074753794280273,46.92750509829883],[11.739651617080053,46.751658958855224],[11.908413866924741,46.414134459165844],[11.570889367235365,46.245372209321154],[11.570889367235365,45.975352609569654],[11.3346222174528,46.009105059538591],[11.233364867545989,46.009105059538591],[11.165859967608114,45.739085459787091],[10.929592817825549,45.840342809693908],[10.794583017949799,45.637828109880282],[10.659573218074049,45.806590359724964],[10.524563418198298,45.739085459787091],[10.457058518260423,46.211619759352217],[10.558315868167236,46.312877109259034],[10.558315868167236,46.71790650888628],[10.395699534026367,46.887412630037112],[10.408574137297851,46.964526735261721],[10.311843905059082,47.016975007966799],[10.051520380583984,46.867736421541018],[9.804178270903808,46.976867280916018],[9.800573381987792,47.041663728669924],[9.520760569182617,47.06943853946094],[9.560831102935058,47.155860506013674],[9.464611086455566,47.285522066072268],[9.58434775790332,47.409057222322268],[9.53932315928003,47.4872009429331],[9.560997473255647,47.500488076524242],[9.59837981703166,47.487290214815076],[9.641345290198974,47.507111267480553],[9.64783212793817,47.488110994128014],[9.665830095197322,47.495989656303628],[9.678074563190693,47.488834209737405],[9.699246020649776,47.506282728223709],[9.742809515024337,47.504640797816485],[9.752371325522281,47.510766449051111],[9.712416939502718,47.550616596005639],[9.680344534585727,47.542658223454453],[9.680243137506228,47.55630921377518],[9.665470719275044,47.556240114043327],[9.736709627715332,47.616065584138674],[9.779980692473632,47.566623292878909],[9.891994509307128,47.563529573396487],[9.938269648162109,47.501731477693362],[10.025811228362304,47.480113588289065],[10.020953211394531,47.405971132234377],[10.13797381838916,47.388656221345705],[10.102937731353027,47.300960145906252],[10.199509653655273,47.300960145906252],[10.403125795928222,47.455390535310549],[10.38832667788623,47.578986726716799],[10.495405230132324,47.560435853914065],[10.613203081694824,47.585166536287112],[10.834806475249511,47.544993959382815],[10.876619371978027,47.480113588289065],[10.902938875762207,47.41523703189258],[11.17034629305957,47.424499116853518],[11.340007814971191,47.47084005923633],[11.359831842986328,47.529540620759768],[11.503432306853515,47.535716615632815],[11.55956748446582,47.612979494050784],[12.122032198516113,47.628429017976565],[12.163277659026367,47.708793245271487],[12.358181032744628,47.724254213289065],[12.446094545928222,47.662421785310549],[12.700078997222167,47.690246187166018],[12.76539138278125,47.637698732332034],[12.743726763335449,47.563529573396487],[12.942021402922851,47.483203493074221],[12.978917154875976,47.507907472566409],[13.022998842803222,47.662421785310549],[12.998080286589843,47.733523927644534],[12.847529444304687,47.739711366609377],[12.936306032744628,47.87266119571094],[12.694188150969726,48.12943609805469],[12.85824969729541,48.23158224673633],[13.29362395724414,48.364715181306643],[13.366653475371582,48.442138277009768],[13.384143862334472,48.593932710603518],[13.443694147673828,48.606326662019534],[13.640039476958496,48.538158021882815],[13.946682962981445,48.655101381257815],[13.745481524077636,48.939948640779299],[13.652069124785644,48.956100069001955],[13.578151735869628,49.036891542390627],[13.479734453765136,48.999183259919924],[13.39694312533496,49.089534364656252],[13.203111681548339,49.166171632722659],[12.945256266204101,49.397918306306643],[12.860805544463378,49.365573488191409],[12.645775827971679,49.484584413484377],[12.536298784819824,49.56257589908008],[12.519705805388671,49.66758307071094],[12.448309931365234,49.706145845369143],[12.484350237456542,49.888846956208987],[12.554163012114746,50.001620851472659],[12.368390116301757,50.045638643220705],[12.252341303435546,50.215892396882815],[12.2353592248833,50.240806184724612],[12.344750437346679,50.316737733796877],[12.461618456450683,50.398124299958987],[12.593851122466308,50.383563600496096],[12.783669504729492,50.474105440095705],[12.98234466036914,50.474105440095705],[13.01750091036914,50.555549226716799],[13.189395937529785,50.560977540925784],[13.232996019927246,50.663768373445315],[13.394154581633789,50.691344819978518],[13.47326377352832,50.658740602449221],[13.524158510771972,50.75654562564258],[13.85478118380664,50.767417512849612],[13.910657915679199,50.843509279207034],[14.146485361663085,50.865256868318362],[14.274748835173828,50.908755861238284],[14.388769182769042,50.946826539949221],[14.261660608855468,51.044738374666018],[14.45779803713916,51.077384553865237],[14.596383127776367,51.022975526765627],[14.610322985259277,50.897880159333987],[14.764811548796875,50.865256868318362],[14.828880343047363,50.91691168399219],[14.997266802397949,50.91691168399219],[15.008268389312011,50.984893403962893],[14.980959925261718,51.017535768464846],[15.009285959807617,51.055621705964846],[15.171886477080566,51.063785158113284],[15.26701262911914,51.022975526765627],[15.308753046599609,50.906035982087893],[15.472163233367187,50.832637392],[15.562799486724121,50.821288667634768],[15.81834319552539,50.797309480623049],[15.87748626193164,50.715789400056643],[16.002932581511718,50.732093416169924],[16.000857386199218,50.65602072329883],[16.210207972136718,50.685908876375002],[16.237784418669921,50.715789400056643],[16.35314658602832,50.704917512849612],[16.442826304045898,50.623431764558596],[16.39859107455371,50.569118104890627],[16.30474570712207,50.558261476472659],[16.204402002898437,50.463248811677737],[16.451422724333984,50.35200461001758],[16.584954294768554,50.181151948884768],[16.728022608367187,50.148624025300784],[16.82705787142871,50.232669435457034],[17.01153281649707,50.286902986482424],[16.884440455046875,50.422545991853518],[16.885588678923828,50.487693391755862],[17.014424357024414,50.476825319246096],[17.243329081145507,50.389987550691409],[17.359746012297851,50.335723482087893],[17.678759607878906,50.338267885164065],[17.597117457,50.21097906680469],[17.745572123137695,50.248939119294924],[17.744708094207031,50.135070405916018],[17.750657114592773,50.035976015046877],[17.882494959441406,50.030109010652346],[18.048035654631835,50.102550111726565],[18.187768015471679,50.02125509829883],[18.548720392791015,49.961726747468752],[18.604470563954951,49.93895094627171],[18.748202281588028,50.046138706126797],[18.769068769057146,50.176988040827368],[19.31123813054608,50.268402297133605],[19.923391531886008,50.185163985381308],[20.270606723981228,50.104214658488026],[20.811200157145858,50.361095554064583],[21.157381831517124,50.37649289059501],[21.907832550136984,50.812191277597897],[22.394366639985158,50.680252441928637],[22.482849242903928,50.371746353887993],[23.116237225465937,50.385361612395251],[24.062760839856356,50.620738831949325],[24.404363347305527,50.63428250465612],[25.151618832350589,50.335419890477787],[25.202615317822097,50.155245426301477],[25.380113072043279,50.046566942702853],[25.505168307971839,49.844081013847749],[25.671139312429542,49.759607176117342],[26.254710262655212,49.750411560496524],[26.048621578415435,49.063532435398855],[26.219363880507288,49.134291869828687],[26.16266290937989,48.940589617650801],[26.989401025007322,48.680757638453613]]]}}
]
}
